KUIPER-00047            
1 64507U 25134H   26064.71878979  .00004649  00000+0  67956-3 0  9999
2 64507  51.8979 233.3304 0002527 128.0216 232.0974 14.77252472 39726
KUIPER-00048            
1 64508U 25134J   26064.86741027  .00004581  00000+0  62931-3 0  9992
2 64508  51.8979 232.4798 0001001 109.1441 250.9630 14.79949775 39752
KUIPER-00049            
1 64509U 25134K   26064.83676741  .00005466  00000+0  68826-3 0  9992
2 64509  51.8987 245.9330 0001778 125.8404 234.2725 14.83308507 39564
KUIPER-00050            
1 64510U 25134L   26064.82107298  .00007897  00000+0  69647-3 0  9991
2 64510  51.8886 229.5337 0004284 308.1735  51.8848 14.97214526 39793
KUIPER-00051            
1 64511U 25134M   26064.71490521  .00005714  00000+0  71092-3 0  9997
2 64511  51.9012 243.4600 0000733  97.2949 262.8098 14.83734945 39587
KUIPER-00053            
1 64513U 25134P   26064.65676196  .00003352  00000+0  46855-3 0  9991
2 64513  51.8999 240.9286 0000976 148.9088 211.1933 14.79922867 39617
KUIPER-00054            
1 64514U 25134Q   26064.66239936  .00005295  00000+0  72281-3 0  9990
2 64514  51.8968 235.8762 0000251 132.2984 227.8000 14.79945727 39689
KUIPER-00055            
1 64515U 25134R   26064.56405301  .00022074  00000+0  10121-2 0  9999
2 64515  51.8879 199.2038 0000673   1.0671 359.0310 15.20374238 40194
KUIPER-00056            
1 64516U 25134S   26064.70729043  .00005911  00000+0  73866-3 0  9995
2 64516  51.9013 240.8959 0001010  61.5776 298.5290 14.83500969 39624
KUIPER-00057            
1 64517U 25134T   26064.70198976  .00005644  00000+0  70276-3 0  9996
2 64517  51.8983 248.4144 0004150 259.5304 100.5192 14.83722769 39519
KUIPER-00058            
1 64518U 25134U   26064.72172621  .00005312  00000+0  72484-3 0  9993
2 64518  51.9005 243.0799 0000602 112.8441 247.2585 14.79956006 39595
KUIPER-00059            
1 64519U 25134V   26064.72701067  .00005535  00000+0  75462-3 0  9992
2 64519  51.8995 238.1085 0001135 146.9742 213.1291 14.79922590 39665
KUIPER-00060            
1 64520U 25134W   26064.70742626  .00005541  00000+0  69313-3 0  9993
2 64520  51.9022 238.3721 0001606  70.8859 289.2278 14.83563787 39646
KUIPER-00061            
1 64521U 25134X   26064.71887641  .00003684  00000+0  51237-3 0  9994
2 64521  51.8997 245.6473 0001420 117.0100 243.1008 14.79903536 39543
KUIPER-00062            
1 64522U 25134Y   26064.91874978 -.00000211  00000+0  13618-5 0  9993
2 64522  51.8950 247.2987 0000540 154.0617 206.0373 14.79906611 39558
KUIPER-00063            
1 64523U 25134Z   26063.02108499  .00022099  00000+0  29511-2 0  9996
2 64523  51.9025 263.1769 0001008  86.0603 274.0474 14.79460931 39161
