[{"OBJECT_NAME":"KUIPER-00047","OBJECT_ID":"2025-134H","EPOCH":"2026-03-05T17:15:03.437856","MEAN_MOTION":14.77252472,"ECCENTRICITY":0.00025274,"INCLINATION":51.8979,"RA_OF_ASC_NODE":233.3304,"ARG_OF_PERICENTER":128.0216,"MEAN_ANOMALY":232.0974,"EPHEMERIS_TYPE":0,"CLASSIFICATION_TYPE":"U","NORAD_CAT_ID":64507,"ELEMENT_SET_NO":999,"REV_AT_EPOCH":3972,"BSTAR":0.00067956208,"MEAN_MOTION_DOT":4.649e-5,"MEAN_MOTION_DDOT":0},{"OBJECT_NAME":"KUIPER-00048","OBJECT_ID":"2025-134J","EPOCH":"2026-03-05T20:49:04.247328","MEAN_MOTION":14.79949775,"ECCENTRICITY":0.00010018,"INCLINATION":51.8979,"RA_OF_ASC_NODE":232.4798,"ARG_OF_PERICENTER":109.1441,"MEAN_ANOMALY":250.963,"EPHEMERIS_TYPE":0,"CLASSIFICATION_TYPE":"U","NORAD_CAT_ID":64508,"ELEMENT_SET_NO":999,"REV_AT_EPOCH":3975,"BSTAR":0.00062930738,"MEAN_MOTION_DOT":4.581e-5,"MEAN_MOTION_DDOT":0},{"OBJECT_NAME":"KUIPER-00049","OBJECT_ID":"2025-134K","EPOCH":"2026-03-05T20:04:56.704224","MEAN_MOTION":14.83308507,"ECCENTRICITY":0.00017782,"INCLINATION":51.8987,"RA_OF_ASC_NODE":245.933,"ARG_OF_PERICENTER":125.8404,"MEAN_ANOMALY":234.2725,"EPHEMERIS_TYPE":0,"CLASSIFICATION_TYPE":"U","NORAD_CAT_ID":64509,"ELEMENT_SET_NO":999,"REV_AT_EPOCH":3956,"BSTAR":0.00068826352,"MEAN_MOTION_DOT":5.466e-5,"MEAN_MOTION_DDOT":0},{"OBJECT_NAME":"KUIPER-00050","OBJECT_ID":"2025-134L","EPOCH":"2026-03-05T19:42:20.705472","MEAN_MOTION":14.97214526,"ECCENTRICITY":0.00042849,"INCLINATION":51.8886,"RA_OF_ASC_NODE":229.5337,"ARG_OF_PERICENTER":308.1735,"MEAN_ANOMALY":51.8848,"EPHEMERIS_TYPE":0,"CLASSIFICATION_TYPE":"U","NORAD_CAT_ID":64510,"ELEMENT_SET_NO":999,"REV_AT_EPOCH":3979,"BSTAR":0.00069646737,"MEAN_MOTION_DOT":7.897e-5,"MEAN_MOTION_DDOT":0},{"OBJECT_NAME":"KUIPER-00051","OBJECT_ID":"2025-134M","EPOCH":"2026-03-05T17:09:27.810144","MEAN_MOTION":14.83734945,"ECCENTRICITY":7.333e-5,"INCLINATION":51.9012,"RA_OF_ASC_NODE":243.46,"ARG_OF_PERICENTER":97.2949,"MEAN_ANOMALY":262.8098,"EPHEMERIS_TYPE":0,"CLASSIFICATION_TYPE":"U","NORAD_CAT_ID":64511,"ELEMENT_SET_NO":999,"REV_AT_EPOCH":3958,"BSTAR":0.00071092294,"MEAN_MOTION_DOT":5.714e-5,"MEAN_MOTION_DDOT":0},{"OBJECT_NAME":"KUIPER-00053","OBJECT_ID":"2025-134P","EPOCH":"2026-03-05T15:45:44.233344","MEAN_MOTION":14.79922867,"ECCENTRICITY":9.764e-5,"INCLINATION":51.8999,"RA_OF_ASC_NODE":240.9286,"ARG_OF_PERICENTER":148.9088,"MEAN_ANOMALY":211.1933,"EPHEMERIS_TYPE":0,"CLASSIFICATION_TYPE":"U","NORAD_CAT_ID":64513,"ELEMENT_SET_NO":999,"REV_AT_EPOCH":3961,"BSTAR":0.00046854783,"MEAN_MOTION_DOT":3.352e-5,"MEAN_MOTION_DDOT":0},{"OBJECT_NAME":"KUIPER-00054","OBJECT_ID":"2025-134Q","EPOCH":"2026-03-05T15:53:51.304704","MEAN_MOTION":14.79945727,"ECCENTRICITY":2.517e-5,"INCLINATION":51.8968,"RA_OF_ASC_NODE":235.8762,"ARG_OF_PERICENTER":132.2984,"MEAN_ANOMALY":227.8,"EPHEMERIS_TYPE":0,"CLASSIFICATION_TYPE":"U","NORAD_CAT_ID":64514,"ELEMENT_SET_NO":999,"REV_AT_EPOCH":3968,"BSTAR":0.00072281432,"MEAN_MOTION_DOT":5.295e-5,"MEAN_MOTION_DDOT":0},{"OBJECT_NAME":"KUIPER-00055","OBJECT_ID":"2025-134R","EPOCH":"2026-03-05T13:32:14.180064","MEAN_MOTION":15.20374238,"ECCENTRICITY":6.73e-5,"INCLINATION":51.8879,"RA_OF_ASC_NODE":199.2038,"ARG_OF_PERICENTER":1.0671,"MEAN_ANOMALY":359.031,"EPHEMERIS_TYPE":0,"CLASSIFICATION_TYPE":"U","NORAD_CAT_ID":64515,"ELEMENT_SET_NO":999,"REV_AT_EPOCH":4019,"BSTAR":0.0010121,"MEAN_MOTION_DOT":0.00022074,"MEAN_MOTION_DDOT":0},{"OBJECT_NAME":"KUIPER-00056","OBJECT_ID":"2025-134S","EPOCH":"2026-03-05T16:58:29.893152","MEAN_MOTION":14.83500969,"ECCENTRICITY":0.00010101,"INCLINATION":51.9013,"RA_OF_ASC_NODE":240.8959,"ARG_OF_PERICENTER":61.5776,"MEAN_ANOMALY":298.529,"EPHEMERIS_TYPE":0,"CLASSIFICATION_TYPE":"U","NORAD_CAT_ID":64516,"ELEMENT_SET_NO":999,"REV_AT_EPOCH":3962,"BSTAR":0.00073865549,"MEAN_MOTION_DOT":5.911e-5,"MEAN_MOTION_DDOT":0},{"OBJECT_NAME":"KUIPER-00057","OBJECT_ID":"2025-134T","EPOCH":"2026-03-05T16:50:51.915264","MEAN_MOTION":14.83722769,"ECCENTRICITY":0.00041509,"INCLINATION":51.8983,"RA_OF_ASC_NODE":248.4144,"ARG_OF_PERICENTER":259.5304,"MEAN_ANOMALY":100.5192,"EPHEMERIS_TYPE":0,"CLASSIFICATION_TYPE":"U","NORAD_CAT_ID":64517,"ELEMENT_SET_NO":999,"REV_AT_EPOCH":3951,"BSTAR":0.00070276211,"MEAN_MOTION_DOT":5.644e-5,"MEAN_MOTION_DDOT":0},{"OBJECT_NAME":"KUIPER-00058","OBJECT_ID":"2025-134U","EPOCH":"2026-03-05T17:19:17.144544","MEAN_MOTION":14.79956006,"ECCENTRICITY":6.02e-5,"INCLINATION":51.9005,"RA_OF_ASC_NODE":243.0799,"ARG_OF_PERICENTER":112.8441,"MEAN_ANOMALY":247.2585,"EPHEMERIS_TYPE":0,"CLASSIFICATION_TYPE":"U","NORAD_CAT_ID":64518,"ELEMENT_SET_NO":999,"REV_AT_EPOCH":3959,"BSTAR":0.00072484345,"MEAN_MOTION_DOT":5.312e-5,"MEAN_MOTION_DDOT":0},{"OBJECT_NAME":"KUIPER-00059","OBJECT_ID":"2025-134V","EPOCH":"2026-03-05T17:26:53.721888","MEAN_MOTION":14.7992259,"ECCENTRICITY":0.00011357,"INCLINATION":51.8995,"RA_OF_ASC_NODE":238.1085,"ARG_OF_PERICENTER":146.9742,"MEAN_ANOMALY":213.1291,"EPHEMERIS_TYPE":0,"CLASSIFICATION_TYPE":"U","NORAD_CAT_ID":64519,"ELEMENT_SET_NO":999,"REV_AT_EPOCH":3966,"BSTAR":0.00075462266,"MEAN_MOTION_DOT":5.535e-5,"MEAN_MOTION_DDOT":0},{"OBJECT_NAME":"KUIPER-00060","OBJECT_ID":"2025-134W","EPOCH":"2026-03-05T16:58:41.628864","MEAN_MOTION":14.83563787,"ECCENTRICITY":0.00016069,"INCLINATION":51.9022,"RA_OF_ASC_NODE":238.3721,"ARG_OF_PERICENTER":70.8859,"MEAN_ANOMALY":289.2278,"EPHEMERIS_TYPE":0,"CLASSIFICATION_TYPE":"U","NORAD_CAT_ID":64520,"ELEMENT_SET_NO":999,"REV_AT_EPOCH":3964,"BSTAR":0.00069312857,"MEAN_MOTION_DOT":5.541e-5,"MEAN_MOTION_DDOT":0},{"OBJECT_NAME":"KUIPER-00061","OBJECT_ID":"2025-134X","EPOCH":"2026-03-05T17:15:10.921824","MEAN_MOTION":14.79903536,"ECCENTRICITY":0.00014201,"INCLINATION":51.8997,"RA_OF_ASC_NODE":245.6473,"ARG_OF_PERICENTER":117.01,"MEAN_ANOMALY":243.1008,"EPHEMERIS_TYPE":0,"CLASSIFICATION_TYPE":"U","NORAD_CAT_ID":64521,"ELEMENT_SET_NO":999,"REV_AT_EPOCH":3954,"BSTAR":0.00051236805,"MEAN_MOTION_DOT":3.684e-5,"MEAN_MOTION_DDOT":0},{"OBJECT_NAME":"KUIPER-00062","OBJECT_ID":"2025-134Y","EPOCH":"2026-03-05T22:02:59.980992","MEAN_MOTION":14.79906611,"ECCENTRICITY":5.407e-5,"INCLINATION":51.895,"RA_OF_ASC_NODE":247.2987,"ARG_OF_PERICENTER":154.0617,"MEAN_ANOMALY":206.0373,"EPHEMERIS_TYPE":0,"CLASSIFICATION_TYPE":"U","NORAD_CAT_ID":64522,"ELEMENT_SET_NO":999,"REV_AT_EPOCH":3955,"BSTAR":1.361807e-6,"MEAN_MOTION_DOT":-2.11e-6,"MEAN_MOTION_DDOT":0},{"OBJECT_NAME":"KUIPER-00063","OBJECT_ID":"2025-134Z","EPOCH":"2026-03-04T00:30:21.743136","MEAN_MOTION":14.79460931,"ECCENTRICITY":0.00010083,"INCLINATION":51.9025,"RA_OF_ASC_NODE":263.1769,"ARG_OF_PERICENTER":86.0603,"MEAN_ANOMALY":274.0474,"EPHEMERIS_TYPE":0,"CLASSIFICATION_TYPE":"U","NORAD_CAT_ID":64523,"ELEMENT_SET_NO":999,"REV_AT_EPOCH":3916,"BSTAR":0.002951124,"MEAN_MOTION_DOT":0.00022099,"MEAN_MOTION_DDOT":0}]
